CCSDS_OMM_VERS = 2.0
CREATION_DATE  = 
ORIGINATOR     = 

OBJECT_NAME    = STARLINK-35893
OBJECT_ID      = 2025-268J
CENTER_NAME    = EARTH
REF_FRAME      = TEME
TIME_SYSTEM    = UTC
MEAN_ELEMENT_THEORY = SGP/SGP4

EPOCH          = 2025-12-29T20:00:01.999008
MEAN_MOTION    = 15.30186006
ECCENTRICITY   = .00012
INCLINATION    = 43.0012
RA_OF_ASC_NODE = 21.3754
ARG_OF_PERICENTER = 253.7570
MEAN_ANOMALY   = 279.1982

EPHEMERIS_TYPE = 0
CLASSIFICATION_TYPE = U
NORAD_CAT_ID   = 66565
ELEMENT_SET_NO = 999
REV_AT_EPOCH   = 602
BSTAR          = -.88512E-1
MEAN_MOTION_DOT = -.234369E-1
MEAN_MOTION_DDOT = 0

CCSDS_OMM_VERS = 2.0
CREATION_DATE  = 
ORIGINATOR     = 

OBJECT_NAME    = STARLINK-35871
OBJECT_ID      = 2025-268K
CENTER_NAME    = EARTH
REF_FRAME      = TEME
TIME_SYSTEM    = UTC
MEAN_ELEMENT_THEORY = SGP/SGP4

EPOCH          = 2025-12-29T20:00:01.999008
MEAN_MOTION    = 15.30460851
ECCENTRICITY   = .0001385
INCLINATION    = 43.0006
RA_OF_ASC_NODE = 21.3443
ARG_OF_PERICENTER = 289.1572
MEAN_ANOMALY   = 256.8852

EPHEMERIS_TYPE = 0
CLASSIFICATION_TYPE = U
NORAD_CAT_ID   = 66566
ELEMENT_SET_NO = 999
REV_AT_EPOCH   = 585
BSTAR          = -.69553E-1
MEAN_MOTION_DOT = -.1871744E-1
MEAN_MOTION_DDOT = 0

CCSDS_OMM_VERS = 2.0
CREATION_DATE  = 
ORIGINATOR     = 

OBJECT_NAME    = STARLINK-35825
OBJECT_ID      = 2025-268L
CENTER_NAME    = EARTH
REF_FRAME      = TEME
TIME_SYSTEM    = UTC
MEAN_ELEMENT_THEORY = SGP/SGP4

EPOCH          = 2025-12-29T20:00:01.999008
MEAN_MOTION    = 15.31443471
ECCENTRICITY   = .0000831
INCLINATION    = 43.0015
RA_OF_ASC_NODE = 21.3091
ARG_OF_PERICENTER = 247.8091
MEAN_ANOMALY   = 312.4185

EPHEMERIS_TYPE = 0
CLASSIFICATION_TYPE = U
NORAD_CAT_ID   = 66567
ELEMENT_SET_NO = 999
REV_AT_EPOCH   = 585
BSTAR          = -.87502E-1
MEAN_MOTION_DOT = -.2402475E-1
MEAN_MOTION_DDOT = 0

CCSDS_OMM_VERS = 2.0
CREATION_DATE  = 
ORIGINATOR     = 

OBJECT_NAME    = STARLINK-35803
OBJECT_ID      = 2025-268M
CENTER_NAME    = EARTH
REF_FRAME      = TEME
TIME_SYSTEM    = UTC
MEAN_ELEMENT_THEORY = SGP/SGP4

EPOCH          = 2025-12-29T20:00:01.999008
MEAN_MOTION    = 15.34758804
ECCENTRICITY   = .000105
INCLINATION    = 43.0008
RA_OF_ASC_NODE = 21.2723
ARG_OF_PERICENTER = 276.9960
MEAN_ANOMALY   = 298.0815

EPHEMERIS_TYPE = 0
CLASSIFICATION_TYPE = U
NORAD_CAT_ID   = 66568
ELEMENT_SET_NO = 999
REV_AT_EPOCH   = 602
BSTAR          = -.58242E-1
MEAN_MOTION_DOT = -.1803915E-1
MEAN_MOTION_DDOT = 0

CCSDS_OMM_VERS = 2.0
CREATION_DATE  = 
ORIGINATOR     = 

OBJECT_NAME    = STARLINK-35835
OBJECT_ID      = 2025-268N
CENTER_NAME    = EARTH
REF_FRAME      = TEME
TIME_SYSTEM    = UTC
MEAN_ELEMENT_THEORY = SGP/SGP4

EPOCH          = 2025-12-29T20:00:01.999008
MEAN_MOTION    = 15.32634337
ECCENTRICITY   = .000101
INCLINATION    = 43.0012
RA_OF_ASC_NODE = 21.2278
ARG_OF_PERICENTER = 265.5547
MEAN_ANOMALY   = 327.6243

EPHEMERIS_TYPE = 0
CLASSIFICATION_TYPE = U
NORAD_CAT_ID   = 66569
ELEMENT_SET_NO = 999
REV_AT_EPOCH   = 602
BSTAR          = -.72667E-1
MEAN_MOTION_DOT = -.2104801E-1
MEAN_MOTION_DDOT = 0

CCSDS_OMM_VERS = 2.0
CREATION_DATE  = 
ORIGINATOR     = 

OBJECT_NAME    = STARLINK-35834
OBJECT_ID      = 2025-268P
CENTER_NAME    = EARTH
REF_FRAME      = TEME
TIME_SYSTEM    = UTC
MEAN_ELEMENT_THEORY = SGP/SGP4

EPOCH          = 2025-12-29T20:00:01.999008
MEAN_MOTION    = 15.27548521
ECCENTRICITY   = .0000432
INCLINATION    = 43.0017
RA_OF_ASC_NODE = 22.0161
ARG_OF_PERICENTER = 223.6745
MEAN_ANOMALY   = 42.8947

EPHEMERIS_TYPE = 0
CLASSIFICATION_TYPE = U
NORAD_CAT_ID   = 66570
ELEMENT_SET_NO = 999
REV_AT_EPOCH   = 602
BSTAR          = .50984E-3
MEAN_MOTION_DOT = .1378E-3
MEAN_MOTION_DDOT = 0

CCSDS_OMM_VERS = 2.0
CREATION_DATE  = 
ORIGINATOR     = 

OBJECT_NAME    = STARLINK-35836
OBJECT_ID      = 2025-268Q
CENTER_NAME    = EARTH
REF_FRAME      = TEME
TIME_SYSTEM    = UTC
MEAN_ELEMENT_THEORY = SGP/SGP4

EPOCH          = 2025-12-29T20:00:01.999008
MEAN_MOTION    = 15.27568858
ECCENTRICITY   = .0000888
INCLINATION    = 43.0015
RA_OF_ASC_NODE = 21.9647
ARG_OF_PERICENTER = 285.1394
MEAN_ANOMALY   = 2.5757

EPHEMERIS_TYPE = 0
CLASSIFICATION_TYPE = U
NORAD_CAT_ID   = 66571
ELEMENT_SET_NO = 999
REV_AT_EPOCH   = 580
BSTAR          = .41346E-3
MEAN_MOTION_DOT = .11129E-3
MEAN_MOTION_DDOT = 0

CCSDS_OMM_VERS = 2.0
CREATION_DATE  = 
ORIGINATOR     = 

OBJECT_NAME    = STARLINK-35870
OBJECT_ID      = 2025-268R
CENTER_NAME    = EARTH
REF_FRAME      = TEME
TIME_SYSTEM    = UTC
MEAN_ELEMENT_THEORY = SGP/SGP4

EPOCH          = 2025-12-29T20:00:01.999008
MEAN_MOTION    = 15.27573007
ECCENTRICITY   = .0001436
INCLINATION    = 43.0011
RA_OF_ASC_NODE = 21.8808
ARG_OF_PERICENTER = 264.5763
MEAN_ANOMALY   = 58.4877

EPHEMERIS_TYPE = 0
CLASSIFICATION_TYPE = U
NORAD_CAT_ID   = 66572
ELEMENT_SET_NO = 999
REV_AT_EPOCH   = 574
BSTAR          = .88562E-3
MEAN_MOTION_DOT = .24183E-3
MEAN_MOTION_DDOT = 0

CCSDS_OMM_VERS = 2.0
CREATION_DATE  = 
ORIGINATOR     = 

OBJECT_NAME    = STARLINK-35650
OBJECT_ID      = 2025-268S
CENTER_NAME    = EARTH
REF_FRAME      = TEME
TIME_SYSTEM    = UTC
MEAN_ELEMENT_THEORY = SGP/SGP4

EPOCH          = 2025-12-29T20:00:01.999008
MEAN_MOTION    = 15.27573898
ECCENTRICITY   = .0001215
INCLINATION    = 43.0009
RA_OF_ASC_NODE = 21.8279
ARG_OF_PERICENTER = 271.9872
MEAN_ANOMALY   = 72.3224

EPHEMERIS_TYPE = 0
CLASSIFICATION_TYPE = U
NORAD_CAT_ID   = 66573
ELEMENT_SET_NO = 999
REV_AT_EPOCH   = 590
BSTAR          = .58236E-3
MEAN_MOTION_DOT = .15795E-3
MEAN_MOTION_DDOT = 0

CCSDS_OMM_VERS = 2.0
CREATION_DATE  = 
ORIGINATOR     = 

OBJECT_NAME    = STARLINK-35812
OBJECT_ID      = 2025-268T
CENTER_NAME    = EARTH
REF_FRAME      = TEME
TIME_SYSTEM    = UTC
MEAN_ELEMENT_THEORY = SGP/SGP4

EPOCH          = 2025-12-29T20:00:01.999008
MEAN_MOTION    = 15.27580434
ECCENTRICITY   = .0001066
INCLINATION    = 43.0008
RA_OF_ASC_NODE = 21.7756
ARG_OF_PERICENTER = 255.2722
MEAN_ANOMALY   = 110.2590

EPHEMERIS_TYPE = 0
CLASSIFICATION_TYPE = U
NORAD_CAT_ID   = 66574
ELEMENT_SET_NO = 999
REV_AT_EPOCH   = 590
BSTAR          = .54159E-3
MEAN_MOTION_DOT = .14671E-3
MEAN_MOTION_DDOT = 0

CCSDS_OMM_VERS = 2.0
CREATION_DATE  = 
ORIGINATOR     = 

OBJECT_NAME    = STARLINK-35810
OBJECT_ID      = 2025-268U
CENTER_NAME    = EARTH
REF_FRAME      = TEME
TIME_SYSTEM    = UTC
MEAN_ELEMENT_THEORY = SGP/SGP4

EPOCH          = 2025-12-29T20:00:01.999008
MEAN_MOTION    = 15.27598759
ECCENTRICITY   = .0001921
INCLINATION    = 43.0007
RA_OF_ASC_NODE = 21.7245
ARG_OF_PERICENTER = 258.9244
MEAN_ANOMALY   = 127.7560

EPHEMERIS_TYPE = 0
CLASSIFICATION_TYPE = U
NORAD_CAT_ID   = 66575
ELEMENT_SET_NO = 999
REV_AT_EPOCH   = 590
BSTAR          = .62312E-3
MEAN_MOTION_DOT = .16934E-3
MEAN_MOTION_DDOT = 0

CCSDS_OMM_VERS = 2.0
CREATION_DATE  = 
ORIGINATOR     = 

OBJECT_NAME    = STARLINK-35814
OBJECT_ID      = 2025-268V
CENTER_NAME    = EARTH
REF_FRAME      = TEME
TIME_SYSTEM    = UTC
MEAN_ELEMENT_THEORY = SGP/SGP4

EPOCH          = 2025-12-29T20:00:01.999008
MEAN_MOTION    = 15.27577958
ECCENTRICITY   = .0001638
INCLINATION    = 43.0008
RA_OF_ASC_NODE = 21.6732
ARG_OF_PERICENTER = 269.9341
MEAN_ANOMALY   = 138.0418

EPHEMERIS_TYPE = 0
CLASSIFICATION_TYPE = U
NORAD_CAT_ID   = 66576
ELEMENT_SET_NO = 999
REV_AT_EPOCH   = 585
BSTAR          = .64422E-3
MEAN_MOTION_DOT = .17507E-3
MEAN_MOTION_DDOT = 0

