STARLINK-35893          
1 66565U 25268J   25363.83335647 -.02343690  00000+0 -88512-1 0  9992
2 66565  43.0012  21.3754 0001200 253.7570 279.1982 15.30186006  6020
STARLINK-35871          
1 66566U 25268K   25363.83335647 -.01871744  00000+0 -69553-1 0  9992
2 66566  43.0006  21.3443 0001385 289.1572 256.8852 15.30460851  5859
STARLINK-35825          
1 66567U 25268L   25363.83335647 -.02402475  00000+0 -87502-1 0  9999
2 66567  43.0015  21.3091 0000831 247.8091 312.4185 15.31443471  5859
STARLINK-35803          
1 66568U 25268M   25363.83335647 -.01803915  00000+0 -58242-1 0  9992
2 66568  43.0008  21.2723 0001050 276.9960 298.0815 15.34758804  6026
STARLINK-35835          
1 66569U 25268N   25363.83335647 -.02104801  00000+0 -72667-1 0  9999
2 66569  43.0012  21.2278 0001010 265.5547 327.6243 15.32634337  6024
STARLINK-35834          
1 66570U 25268P   25363.83335647  .00013780  00000+0  50984-3 0  9992
2 66570  43.0017  22.0161 0000432 223.6745  42.8947 15.27548521  6023
STARLINK-35836          
1 66571U 25268Q   25363.83335647  .00011129  00000+0  41346-3 0  9990
2 66571  43.0015  21.9647 0000888 285.1394   2.5757 15.27568858  5809
STARLINK-35870          
1 66572U 25268R   25363.83335647  .00024183  00000+0  88562-3 0  9996
2 66572  43.0011  21.8808 0001436 264.5763  58.4877 15.27573007  5743
STARLINK-35650          
1 66573U 25268S   25363.83335647  .00015795  00000+0  58236-3 0  9991
2 66573  43.0009  21.8279 0001215 271.9872  72.3224 15.27573898  5908
STARLINK-35812          
1 66574U 25268T   25363.83335647  .00014671  00000+0  54159-3 0  9994
2 66574  43.0008  21.7756 0001066 255.2722 110.2590 15.27580434  5902
STARLINK-35810          
1 66575U 25268U   25363.83335647  .00016934  00000+0  62312-3 0  9999
2 66575  43.0007  21.7245 0001921 258.9244 127.7560 15.27598759  5903
STARLINK-35814          
1 66576U 25268V   25363.83335647  .00017507  00000+0  64422-3 0  9991
2 66576  43.0008  21.6732 0001638 269.9341 138.0418 15.27577958  5859
